[{"OBJECT_NAME":"TIANMU-1 22","OBJECT_ID":"2023-208D","EPOCH":"2026-03-09T22:39:05.738688","MEAN_MOTION":15.29457749,"ECCENTRICITY":0.00031332,"INCLINATION":97.4379,"RA_OF_ASC_NODE":184.9419,"ARG_OF_PERICENTER":351.9312,"MEAN_ANOMALY":8.1877,"EPHEMERIS_TYPE":0,"CLASSIFICATION_TYPE":"U","NORAD_CAT_ID":58663,"ELEMENT_SET_NO":999,"REV_AT_EPOCH":12215,"BSTAR":0.00038239675,"MEAN_MOTION_DOT":0.00010851,"MEAN_MOTION_DDOT":0},{"OBJECT_NAME":"STARLINK-34910","OBJECT_ID":"2025-247E","EPOCH":"2026-03-09T14:52:43.801824","MEAN_MOTION":15.30190409,"ECCENTRICITY":0.0001103,"INCLINATION":53.1585,"RA_OF_ASC_NODE":191.6779,"ARG_OF_PERICENTER":93.2829,"MEAN_ANOMALY":266.8298,"EPHEMERIS_TYPE":0,"CLASSIFICATION_TYPE":"U","NORAD_CAT_ID":66269,"ELEMENT_SET_NO":999,"REV_AT_EPOCH":2102,"BSTAR":0.0011487,"MEAN_MOTION_DOT":0.00033808,"MEAN_MOTION_DDOT":0}]
